start=new Date('2022-03-04T00:00:00.000Z').valueOf();
sats=[{"EPOCH":"2022-03-03T20:15:15.831936","NORAD_CAT_ID":"45560","CENTER_NAME":"EARTH","PERIOD":"95.592","TIME_SYSTEM":"UTC","ELEMENT_SET_NO":"999","RA_OF_ASC_NODE":"181.5524","OBJECT_TYPE":"PAYLOAD","RCS_SIZE":"LARGE","EPHEMERIS_TYPE":"0","CLASSIFICATION_TYPE":"U","INCLINATION":"53.0544","MEAN_MOTION_DDOT":"0.0000000000000","MEAN_ELEMENT_THEORY":"SGP4","REV_AT_EPOCH":"10442","LAUNCH_DATE":"2020-04-22","TLE_LINE1":"1 45560U 20025AF  22062.84393324  .00001121  00000-0  94140-4 0  9994","DECAY_DATE":null,"COUNTRY_CODE":"US","REF_FRAME":"TEME","MEAN_ANOMALY":"286.2339","APOAPSIS":"548.179","BSTAR":"0.00009414000000","FILE":"3343255","MEAN_MOTION_DOT":"0.00001121","ECCENTRICITY":"0.00013780","OBJECT_NAME":"STARLINK-1346","TLE_LINE2":"2 45560  53.0544 181.5524 0001378  73.8801 286.2339 15.06396342104428","GP_ID":"197765595","PERIAPSIS":"546.270","SITE":"AFETR","MEAN_MOTION":"15.06396342","OBJECT_ID":"2020-025AF","SEMIMAJOR_AXIS":"6925.360","ARG_OF_PERICENTER":"73.8801"},{"GP_ID":"197765846","TLE_LINE2":"2 45561  53.0568 104.5977 0001274  41.8217 318.2871 15.09554387105508","SITE":"AFETR","PERIAPSIS":"536.682","MEAN_MOTION":"15.09554387","BSTAR":"0.00060568000000","FILE":"3343255","ECCENTRICITY":"0.00012740","MEAN_MOTION_DOT":"0.00009554","OBJECT_NAME":"STARLINK-1348","OBJECT_ID":"2020-025AG","ARG_OF_PERICENTER":"41.8217","SEMIMAJOR_AXIS":"6915.698","TIME_SYSTEM":"UTC","ELEMENT_SET_NO":"999","RA_OF_ASC_NODE":"104.5977","EPOCH":"2022-03-03T20:14:56.968224","NORAD_CAT_ID":"45561","CENTER_NAME":"EARTH","PERIOD":"95.392","INCLINATION":"53.0568","MEAN_MOTION_DDOT":"0.0000000000000","REV_AT_EPOCH":"10550","MEAN_ELEMENT_THEORY":"SGP4","DECAY_DATE":null,"TLE_LINE1":"1 45561U 20025AG  22062.84371491  .00009554  00000-0  60568-3 0  9990","LAUNCH_DATE":"2020-04-22","REF_FRAME":"TEME","COUNTRY_CODE":"US","MEAN_ANOMALY":"318.2871","APOAPSIS":"538.444","RCS_SIZE":"LARGE","OBJECT_TYPE":"PAYLOAD","EPHEMERIS_TYPE":"0","CLASSIFICATION_TYPE":"U"},{"FILE":"3343255","BSTAR":"0.00064691000000","OBJECT_NAME":"STARLINK-1354","ECCENTRICITY":"0.00020600","MEAN_MOTION_DOT":"0.00009357","PERIAPSIS":"545.906","SITE":"AFETR","TLE_LINE2":"2 45562  53.0539 192.0408 0002060  85.7487 274.3738 15.06361007104266","GP_ID":"197766597","MEAN_MOTION":"15.06361007","SEMIMAJOR_AXIS":"6925.468","ARG_OF_PERICENTER":"85.7487","OBJECT_ID":"2020-025AH","NORAD_CAT_ID":"45562","EPOCH":"2022-03-03T17:34:42.752064","PERIOD":"95.595","CENTER_NAME":"EARTH","TIME_SYSTEM":"UTC","RA_OF_ASC_NODE":"192.0408","ELEMENT_SET_NO":"999","OBJECT_TYPE":"PAYLOAD","RCS_SIZE":"LARGE","CLASSIFICATION_TYPE":"U","EPHEMERIS_TYPE":"0","REV_AT_EPOCH":"10426","MEAN_ELEMENT_THEORY":"SGP4","MEAN_MOTION_DDOT":"0.0000000000000","INCLINATION":"53.0539","APOAPSIS":"548.760","MEAN_ANOMALY":"274.3738","TLE_LINE1":"1 45562U 20025AH  22062.73243926  .00009357  00000-0  64691-3 0  9992","COUNTRY_CODE":"US","DECAY_DATE":null,"LAUNCH_DATE":"2020-04-22","REF_FRAME":"TEME"},{"MEAN_MOTION":"15.06404529","SITE":"AFETR","PERIAPSIS":"546.319","TLE_LINE2":"2 45563  53.0541 192.2883 0001272  85.8584 274.2551 15.06404529104250","GP_ID":"197764845","OBJECT_NAME":"STARLINK-1355","ECCENTRICITY":"0.00012720","MEAN_MOTION_DOT":"-0.00002730","FILE":"3343255","BSTAR":"-0.00016442000000","ARG_OF_PERICENTER":"85.8584","SEMIMAJOR_AXIS":"6925.335","OBJECT_ID":"2020-025AJ","RA_OF_ASC_NODE":"192.2883","ELEMENT_SET_NO":"999","TIME_SYSTEM":"UTC","PERIOD":"95.592","CENTER_NAME":"EARTH","NORAD_CAT_ID":"45563","EPOCH":"2022-03-03T16:20:24.187200","APOAPSIS":"548.081","MEAN_ANOMALY":"274.2551","TLE_LINE1":"1 45563U 20025AJ  22062.68083550 -.00002730  00000-0 -16442-3 0  9993","LAUNCH_DATE":"2020-04-22","DECAY_DATE":null,"COUNTRY_CODE":"US","REF_FRAME":"TEME","REV_AT_EPOCH":"10425","MEAN_ELEMENT_THEORY":"SGP4","MEAN_MOTION_DDOT":"0.0000000000000","INCLINATION":"53.0541","CLASSIFICATION_TYPE":"U","EPHEMERIS_TYPE":"0","OBJECT_TYPE":"PAYLOAD","RCS_SIZE":"LARGE"},{"MEAN_MOTION":"15.06384813","TLE_LINE2":"2 45564  53.0544 192.2872 0001286  81.4583 278.6552 15.06384813104250","GP_ID":"197765095","SITE":"AFETR","PERIAPSIS":"546.369","MEAN_MOTION_DOT":"-0.00001144","ECCENTRICITY":"0.00012860","OBJECT_NAME":"STARLINK-1356","BSTAR":"-0.00005794900000","FILE":"3343255","OBJECT_ID":"2020-025AK","ARG_OF_PERICENTER":"81.4583","SEMIMAJOR_AXIS":"6925.395","ELEMENT_SET_NO":"999","RA_OF_ASC_NODE":"192.2872","TIME_SYSTEM":"UTC","CENTER_NAME":"EARTH","PERIOD":"95.593","EPOCH":"2022-03-03T16:15:05.608800","NORAD_CAT_ID":"45564","COUNTRY_CODE":"US","TLE_LINE1":"1 45564U 20025AK  22062.67714825 -.00001144  00000-0 -57949-4 0  9995","DECAY_DATE":null,"LAUNCH_DATE":"2020-04-22","REF_FRAME":"TEME","MEAN_ANOMALY":"278.6552","APOAPSIS":"548.151","INCLINATION":"53.0544","MEAN_MOTION_DDOT":"0.0000000000000","REV_AT_EPOCH":"10425","MEAN_ELEMENT_THEORY":"SGP4","EPHEMERIS_TYPE":"0","CLASSIFICATION_TYPE":"U","OBJECT_TYPE":"PAYLOAD","RCS_SIZE":"LARGE"},{"SEMIMAJOR_AXIS":"6925.363","ARG_OF_PERICENTER":"69.7467","OBJECT_ID":"2020-025AL","FILE":"3343255","BSTAR":"0.00011973000000","OBJECT_NAME":"STARLINK-1357","ECCENTRICITY":"0.00015650","MEAN_MOTION_DOT":"0.00001502","SITE":"AFETR","PERIAPSIS":"546.144","GP_ID":"197766347","TLE_LINE2":"2 45565  53.0535 192.0279 0001565  69.7467 290.3690 15.06395234104264","MEAN_MOTION":"15.06395234","RCS_SIZE":"LARGE","OBJECT_TYPE":"PAYLOAD","CLASSIFICATION_TYPE":"U","EPHEMERIS_TYPE":"0","REV_AT_EPOCH":"10426","MEAN_ELEMENT_THEORY":"SGP4","MEAN_MOTION_DDOT":"0.0000000000000","INCLINATION":"53.0535","APOAPSIS":"548.312","MEAN_ANOMALY":"290.3690","DECAY_DATE":null,"TLE_LINE1":"1 45565U 20025AL  22062.73611809  .00001502  00000-0  11973-3 0  9993","COUNTRY_CODE":"US","LAUNCH_DATE":"2020-04-22","REF_FRAME":"TEME","NORAD_CAT_ID":"45565","EPOCH":"2022-03-03T17:40:00.602976","PERIOD":"95.592","CENTER_NAME":"EARTH","TIME_SYSTEM":"UTC","RA_OF_ASC_NODE":"192.0279","ELEMENT_SET_NO":"999"},{"OBJECT_ID":"2020-025AM","SEMIMAJOR_AXIS":"6925.370","ARG_OF_PERICENTER":"67.7410","GP_ID":"197766097","TLE_LINE2":"2 45566  53.0543 191.9702 0001547  67.7410 292.3743 15.06393028104269","SITE":"AFETR","PERIAPSIS":"546.164","MEAN_MOTION":"15.06393028","BSTAR":"0.00001669300000","FILE":"3343255","MEAN_MOTION_DOT":"-0.00000033","ECCENTRICITY":"0.00015470","OBJECT_NAME":"STARLINK-1358","INCLINATION":"53.0543","MEAN_MOTION_DDOT":"0.0000000000000","REV_AT_EPOCH":"10426","MEAN_ELEMENT_THEORY":"SGP4","TLE_LINE1":"1 45566U 20025AM  22062.75086357 -.00000033  00000-0  16693-4 0  9994","DECAY_DATE":null,"COUNTRY_CODE":"US","LAUNCH_DATE":"2020-04-22","REF_FRAME":"TEME","MEAN_ANOMALY":"292.3743","APOAPSIS":"548.306","RCS_SIZE":"LARGE","OBJECT_TYPE":"PAYLOAD","EPHEMERIS_TYPE":"0","CLASSIFICATION_TYPE":"U","TIME_SYSTEM":"UTC","ELEMENT_SET_NO":"999","RA_OF_ASC_NODE":"191.9702","EPOCH":"2022-03-03T18:01:14.612448","NORAD_CAT_ID":"45566","CENTER_NAME":"EARTH","PERIOD":"95.593"},{"MEAN_MOTION_DOT":"-0.00002493","ECCENTRICITY":"0.00013810","OBJECT_NAME":"STARLINK-1361","FILE":"3343255","BSTAR":"-0.00014850000000","MEAN_MOTION":"15.06412137","GP_ID":"197765346","TLE_LINE2":"2 45567  53.0540 191.9062 0001381  83.7506 276.3640 15.06412137104278","SITE":"AFETR","PERIAPSIS":"546.220","OBJECT_ID":"2020-025AN","ARG_OF_PERICENTER":"83.7506","SEMIMAJOR_AXIS":"6925.311","CENTER_NAME":"EARTH","PERIOD":"95.591","NORAD_CAT_ID":"45567","EPOCH":"2022-03-03T18:17:09.134592","ELEMENT_SET_NO":"999","RA_OF_ASC_NODE":"191.9062","TIME_SYSTEM":"UTC","EPHEMERIS_TYPE":"0","CLASSIFICATION_TYPE":"U","OBJECT_TYPE":"PAYLOAD","RCS_SIZE":"LARGE","MEAN_ANOMALY":"276.3640","TLE_LINE1":"1 45567U 20025AN  22062.76191128 -.00002493  00000-0 -14850-3 0  9994","LAUNCH_DATE":"2020-04-22","DECAY_DATE":null,"COUNTRY_CODE":"US","REF_FRAME":"TEME","APOAPSIS":"548.133","MEAN_MOTION_DDOT":"0.0000000000000","INCLINATION":"53.0540","MEAN_ELEMENT_THEORY":"SGP4","REV_AT_EPOCH":"10427"},{"ECCENTRICITY":"0.00015020","MEAN_MOTION_DOT":"0.00000607","OBJECT_NAME":"STARLINK-1363","FILE":"3343255","BSTAR":"0.00005965600000","MEAN_MOTION":"15.06388650","TLE_LINE2":"2 45568  53.0543 191.9534 0001502  84.4818 275.6342 15.06388650104267","GP_ID":"197765596","PERIAPSIS":"546.208","SITE":"AFETR","OBJECT_ID":"2020-025AP","ARG_OF_PERICENTER":"84.4818","SEMIMAJOR_AXIS":"6925.383","CENTER_NAME":"EARTH","PERIOD":"95.593","NORAD_CAT_ID":"45568","EPOCH":"2022-03-03T18:05:11.586048","ELEMENT_SET_NO":"999","RA_OF_ASC_NODE":"191.9534","TIME_SYSTEM":"UTC","EPHEMERIS_TYPE":"0","CLASSIFICATION_TYPE":"U","OBJECT_TYPE":"PAYLOAD","RCS_SIZE":"LARGE","MEAN_ANOMALY":"275.6342","TLE_LINE1":"1 45568U 20025AP  22062.75360632  .00000607  00000-0  59656-4 0  9999","LAUNCH_DATE":"2020-04-22","DECAY_DATE":null,"REF_FRAME":"TEME","COUNTRY_CODE":"US","APOAPSIS":"548.289","MEAN_MOTION_DDOT":"0.0000000000000","INCLINATION":"53.0543","REV_AT_EPOCH":"10426","MEAN_ELEMENT_THEORY":"SGP4"},{"REV_AT_EPOCH":"10424","MEAN_ELEMENT_THEORY":"SGP4","MEAN_MOTION_DDOT":"0.0000000000000","INCLINATION":"53.0535","APOAPSIS":"548.098","MEAN_ANOMALY":"292.6976","REF_FRAME":"TEME","TLE_LINE1":"1 45569U 20025AQ  22062.63293257  .00000890  00000-0  78665-4 0  9990","DECAY_DATE":null,"LAUNCH_DATE":"2020-04-22","COUNTRY_CODE":"US","OBJECT_TYPE":"PAYLOAD","RCS_SIZE":"LARGE","CLASSIFICATION_TYPE":"U","EPHEMERIS_TYPE":"0","TIME_SYSTEM":"UTC","RA_OF_ASC_NODE":"192.4917","ELEMENT_SET_NO":"999","NORAD_CAT_ID":"45569","EPOCH":"2022-03-03T15:11:25.374048","PERIOD":"95.593","CENTER_NAME":"EARTH","ARG_OF_PERICENTER":"67.4141","SEMIMAJOR_AXIS":"6925.395","OBJECT_ID":"2020-025AQ","PERIAPSIS":"546.423","SITE":"AFETR","GP_ID":"197765847","TLE_LINE2":"2 45569  53.0535 192.4917 0001209  67.4141 292.6976 15.06384715104242","MEAN_MOTION":"15.06384715","FILE":"3343255","BSTAR":"0.00007866500000","OBJECT_NAME":"STARLINK-1366","MEAN_MOTION_DOT":"0.00000890","ECCENTRICITY":"0.00012090"}];
